[{"OBJECT_NAME":"STARLINK-3254","OBJECT_ID":"2021-125BA","EPOCH":"2026-03-09T22:17:51.254880","MEAN_MOTION":15.0885855,"ECCENTRICITY":0.00012835,"INCLINATION":53.2162,"RA_OF_ASC_NODE":238.0557,"ARG_OF_PERICENTER":86.9741,"MEAN_ANOMALY":273.1399,"EPHEMERIS_TYPE":0,"CLASSIFICATION_TYPE":"U","NORAD_CAT_ID":50204,"ELEMENT_SET_NO":999,"REV_AT_EPOCH":23682,"BSTAR":0.00020434356,"MEAN_MOTION_DOT":2.967e-5,"MEAN_MOTION_DDOT":0},{"OBJECT_NAME":"ELECTRON KICK STAGE R\/B","OBJECT_ID":"2023-035A","EPOCH":"2026-03-09T00:22:03.988416","MEAN_MOTION":15.09409521,"ECCENTRICITY":0.00017263,"INCLINATION":44.1756,"RA_OF_ASC_NODE":311.3301,"ARG_OF_PERICENTER":9.8979,"MEAN_ANOMALY":350.1918,"EPHEMERIS_TYPE":0,"CLASSIFICATION_TYPE":"U","NORAD_CAT_ID":55908,"ELEMENT_SET_NO":999,"REV_AT_EPOCH":16322,"BSTAR":0.00066616987,"MEAN_MOTION_DOT":0.00010608,"MEAN_MOTION_DDOT":0}]
